{"fetched_at":"2026-07-11T09:23:57.375Z","source":"https://celestrak.org/NORAD/elements/gp.php?GROUP=oneweb&FORMAT=JSON","constellation":"oneweb","records":[{"OBJECT_NAME":"ONEWEB-0116","OBJECT_ID":"2021-025E","EPOCH":"2026-07-10T06:49:50.119968","CLASSIFICATION_TYPE":"U","MEAN_MOTION":13.13469394,"ECCENTRICITY":0.00018174,"INCLINATION":87.8988,"RA_OF_ASC_NODE":315.6215,"ARG_OF_PERICENTER":103.6935,"MEAN_ANOMALY":256.4396,"EPHEMERIS_TYPE":0,"NORAD_CAT_ID":48046,"ELEMENT_SET_NO":999,"REV_AT_EPOCH":25668,"BSTAR":-0.00046214241,"MEAN_MOTION_DOT":-0.00000156,"MEAN_MOTION_DDOT":0},{"OBJECT_NAME":"ONEWEB-0150","OBJECT_ID":"2021-025F","EPOCH":"2026-07-10T11:44:48.454080","CLASSIFICATION_TYPE":"U","MEAN_MOTION":13.13470097,"ECCENTRICITY":0.0001954,"INCLINATION":87.8986,"RA_OF_ASC_NODE":315.5788,"ARG_OF_PERICENTER":97.5801,"MEAN_ANOMALY":262.555,"EPHEMERIS_TYPE":0,"NORAD_CAT_ID":48047,"ELEMENT_SET_NO":999,"REV_AT_EPOCH":25660,"BSTAR":0.00073572,"MEAN_MOTION_DOT":0.00000281,"MEAN_MOTION_DDOT":0},{"OBJECT_NAME":"ONEWEB-0107","OBJECT_ID":"2021-025G","EPOCH":"2026-07-09T06:32:07.618560","CLASSIFICATION_TYPE":"U","MEAN_MOTION":13.1347162,"ECCENTRICITY":0.00021211,"INCLINATION":87.8984,"RA_OF_ASC_NODE":315.8165,"ARG_OF_PERICENTER":102.1576,"MEAN_ANOMALY":257.9791,"EPHEMERIS_TYPE":0,"NORAD_CAT_ID":48048,"ELEMENT_SET_NO":999,"REV_AT_EPOCH":25642,"BSTAR":0.0006589163,"MEAN_MOTION_DOT":0.00000253,"MEAN_MOTION_DDOT":0},{"OBJECT_NAME":"ONEWEB-0101","OBJECT_ID":"2021-025H","EPOCH":"2026-07-10T07:14:13.005888","CLASSIFICATION_TYPE":"U","MEAN_MOTION":13.13471071,"ECCENTRICITY":0.00020299,"INCLINATION":87.897,"RA_OF_ASC_NODE":315.6259,"ARG_OF_PERICENTER":103.1896,"MEAN_ANOMALY":256.946,"EPHEMERIS_TYPE":0,"NORAD_CAT_ID":48049,"ELEMENT_SET_NO":999,"REV_AT_EPOCH":25653,"BSTAR":-0.00078888948,"MEAN_MOTION_DOT":-0.00000275,"MEAN_MOTION_DDOT":0},{"OBJECT_NAME":"ONEWEB-0113","OBJECT_ID":"2021-025J","EPOCH":"2026-07-09T15:11:38.620032","CLASSIFICATION_TYPE":"U","MEAN_MOTION":13.13891593,"ECCENTRICITY":0.00018514,"INCLINATION":87.8971,"RA_OF_ASC_NODE":315.6668,"ARG_OF_PERICENTER":97.3915,"MEAN_ANOMALY":262.7425,"EPHEMERIS_TYPE":0,"NORAD_CAT_ID":48050,"ELEMENT_SET_NO":999,"REV_AT_EPOCH":25655,"BSTAR":0.00041275318,"MEAN_MOTION_DOT":0.00000164,"MEAN_MOTION_DDOT":0},{"OBJECT_NAME":"ONEWEB-0112","OBJECT_ID":"2021-025K","EPOCH":"2026-07-09T08:29:06.899712","CLASSIFICATION_TYPE":"U","MEAN_MOTION":13.13468878,"ECCENTRICITY":0.0002128,"INCLINATION":87.8982,"RA_OF_ASC_NODE":315.799,"ARG_OF_PERICENTER":105.2632,"MEAN_ANOMALY":254.8733,"EPHEMERIS_TYPE":0,"NORAD_CAT_ID":48051,"ELEMENT_SET_NO":999,"REV_AT_EPOCH":25650,"BSTAR":0.00041124082,"MEAN_MOTION_DOT":0.00000163,"MEAN_MOTION_DDOT":0},{"OBJECT_NAME":"ONEWEB-0156","OBJECT_ID":"2021-025L","EPOCH":"2026-07-10T06:37:39.137952","CLASSIFICATION_TYPE":"U","MEAN_MOTION":13.13471323,"ECCENTRICITY":0.00020182,"INCLINATION":87.8984,"RA_OF_ASC_NODE":315.6247,"ARG_OF_PERICENTER":98.9149,"MEAN_ANOMALY":261.2209,"EPHEMERIS_TYPE":0,"NORAD_CAT_ID":48052,"ELEMENT_SET_NO":999,"REV_AT_EPOCH":25660,"BSTAR":0.00015468177,"MEAN_MOTION_DOT":6.9e-7,"MEAN_MOTION_DDOT":0},{"OBJECT_NAME":"ONEWEB-0161","OBJECT_ID":"2021-025M","EPOCH":"2026-07-10T09:40:28.396416","CLASSIFICATION_TYPE":"U","MEAN_MOTION":13.13469958,"ECCENTRICITY":0.00020767,"INCLINATION":87.8981,"RA_OF_ASC_NODE":315.6006,"ARG_OF_PERICENTER":96.4003,"MEAN_ANOMALY":263.7362,"EPHEMERIS_TYPE":0,"NORAD_CAT_ID":48053,"ELEMENT_SET_NO":999,"REV_AT_EPOCH":25655,"BSTAR":0.00097552644,"MEAN_MOTION_DOT":0.00000369,"MEAN_MOTION_DDOT":0},{"OBJECT_NAME":"ONEWEB-0158","OBJECT_ID":"2021-025N","EPOCH":"2026-07-09T07:06:13.820256","CLASSIFICATION_TYPE":"U","MEAN_MOTION":13.134631,"ECCENTRICITY":0.00018721,"INCLINATION":87.8981,"RA_OF_ASC_NODE":315.8194,"ARG_OF_PERICENTER":104.2676,"MEAN_ANOMALY":255.8661,"EPHEMERIS_TYPE":0,"NORAD_CAT_ID":48054,"ELEMENT_SET_NO":999,"REV_AT_EPOCH":25653,"BSTAR":-0.0030557545,"MEAN_MOTION_DOT":-0.00001103,"MEAN_MOTION_DDOT":0},{"OBJECT_NAME":"ONEWEB-0157","OBJECT_ID":"2021-025P","EPOCH":"2026-07-10T07:28:50.484288","CLASSIFICATION_TYPE":"U","MEAN_MOTION":13.13471816,"ECCENTRICITY":0.00023378,"INCLINATION":87.8973,"RA_OF_ASC_NODE":315.622,"ARG_OF_PERICENTER":99.813,"MEAN_ANOMALY":260.3263,"EPHEMERIS_TYPE":0,"NORAD_CAT_ID":48055,"ELEMENT_SET_NO":999,"REV_AT_EPOCH":25660,"BSTAR":-0.00018456993,"MEAN_MOTION_DOT":-5.5e-7,"MEAN_MOTION_DDOT":0},{"OBJECT_NAME":"ONEWEB-0162","OBJECT_ID":"2021-025Q","EPOCH":"2026-07-10T06:54:31.338144","CLASSIFICATION_TYPE":"U","MEAN_MOTION":13.13469043,"ECCENTRICITY":0.00019027,"INCLINATION":87.8978,"RA_OF_ASC_NODE":315.6266,"ARG_OF_PERICENTER":94.6222,"MEAN_ANOMALY":265.5124,"EPHEMERIS_TYPE":0,"NORAD_CAT_ID":48056,"ELEMENT_SET_NO":999,"REV_AT_EPOCH":25657,"BSTAR":-0.00060976916,"MEAN_MOTION_DOT":-0.0000021,"MEAN_MOTION_DDOT":0},{"OBJECT_NAME":"ONEWEB-0155","OBJECT_ID":"2021-025R","EPOCH":"2026-07-10T18:02:39.967008","CLASSIFICATION_TYPE":"U","MEAN_MOTION":13.13473459,"ECCENTRICITY":0.0002023,"INCLINATION":87.8976,"RA_OF_ASC_NODE":315.5317,"ARG_OF_PERICENTER":95.9647,"MEAN_ANOMALY":264.1712,"EPHEMERIS_TYPE":0,"NORAD_CAT_ID":48057,"ELEMENT_SET_NO":999,"REV_AT_EPOCH":25677,"BSTAR":-0.00078982,"MEAN_MOTION_DOT":-0.00000276,"MEAN_MOTION_DDOT":0},{"OBJECT_NAME":"ONEWEB-0149","OBJECT_ID":"2021-025S","EPOCH":"2026-07-10T07:36:09.686592","CLASSIFICATION_TYPE":"U","MEAN_MOTION":13.13470301,"ECCENTRICITY":0.00018593,"INCLINATION":87.8986,"RA_OF_ASC_NODE":315.621,"ARG_OF_PERICENTER":91.2154,"MEAN_ANOMALY":268.9188,"EPHEMERIS_TYPE":0,"NORAD_CAT_ID":48058,"ELEMENT_SET_NO":999,"REV_AT_EPOCH":25652,"BSTAR":0.000099813053,"MEAN_MOTION_DOT":4.9e-7,"MEAN_MOTION_DDOT":0},{"OBJECT_NAME":"ONEWEB-0148","OBJECT_ID":"2021-025T","EPOCH":"2026-07-10T08:32:13.311168","CLASSIFICATION_TYPE":"U","MEAN_MOTION":13.13468876,"ECCENTRICITY":0.00020809,"INCLINATION":87.8976,"RA_OF_ASC_NODE":315.6187,"ARG_OF_PERICENTER":82.0668,"MEAN_ANOMALY":278.0698,"EPHEMERIS_TYPE":0,"NORAD_CAT_ID":48059,"ELEMENT_SET_NO":999,"REV_AT_EPOCH":25665,"BSTAR":-0.000008183298,"MEAN_MOTION_DOT":1e-7,"MEAN_MOTION_DDOT":0},{"OBJECT_NAME":"ONEWEB-0160","OBJECT_ID":"2021-025U","EPOCH":"2026-07-10T18:05:03.918048","CLASSIFICATION_TYPE":"U","MEAN_MOTION":13.13469515,"ECCENTRICITY":0.000122,"INCLINATION":87.8969,"RA_OF_ASC_NODE":315.5365,"ARG_OF_PERICENTER":111.1007,"MEAN_ANOMALY":249.0252,"EPHEMERIS_TYPE":0,"NORAD_CAT_ID":48060,"ELEMENT_SET_NO":999,"REV_AT_EPOCH":25665,"BSTAR":-0.00083852,"MEAN_MOTION_DOT":-0.00000293,"MEAN_MOTION_DDOT":0},{"OBJECT_NAME":"ONEWEB-0163","OBJECT_ID":"2021-025V","EPOCH":"2026-07-11T02:51:37.044000","CLASSIFICATION_TYPE":"U","MEAN_MOTION":13.13468362,"ECCENTRICITY":0.0002152,"INCLINATION":87.8977,"RA_OF_ASC_NODE":315.4609,"ARG_OF_PERICENTER":99.2317,"MEAN_ANOMALY":260.9055,"EPHEMERIS_TYPE":0,"NORAD_CAT_ID":48061,"ELEMENT_SET_NO":999,"REV_AT_EPOCH":25682,"BSTAR":0.00014663,"MEAN_MOTION_DOT":6.6e-7,"MEAN_MOTION_DDOT":0}]}
