ONEWEB-0116             
1 48046U 21025E   26191.28460787 -.00000156  00000+0 -46214-3 0  9996
2 48046  87.8988 315.6215 0001817 103.6935 256.4396 13.13469394256684
ONEWEB-0150             
1 48047U 21025F   26191.48944970  .00000281  00000+0  73572-3 0  9994
2 48047  87.8986 315.5788 0001954  97.5801 262.5550 13.13470097256606
ONEWEB-0107             
1 48048U 21025G   26190.27231040  .00000253  00000+0  65892-3 0  9993
2 48048  87.8984 315.8165 0002121 102.1576 257.9791 13.13471620256424
ONEWEB-0101             
1 48049U 21025H   26191.30153942 -.00000275  00000+0 -78889-3 0  9999
2 48049  87.8970 315.6259 0002029 103.1896 256.9460 13.13471071256539
ONEWEB-0113             
1 48050U 21025J   26190.63308588  .00000164  00000+0  41275-3 0  9998
2 48050  87.8971 315.6668 0001851  97.3915 262.7425 13.13891593256557
ONEWEB-0112             
1 48051U 21025K   26190.35355208  .00000163  00000+0  41124-3 0  9991
2 48051  87.8982 315.7990 0002128 105.2632 254.8733 13.13468878256507
ONEWEB-0156             
1 48052U 21025L   26191.27614743  .00000069  00000+0  15468-3 0  9993
2 48052  87.8984 315.6247 0002018  98.9149 261.2209 13.13471323256603
ONEWEB-0161             
1 48053U 21025M   26191.40310644  .00000369  00000+0  97553-3 0  9990
2 48053  87.8981 315.6006 0002076  96.4003 263.7362 13.13469958256552
ONEWEB-0158             
1 48054U 21025N   26190.29599329 -.00001103  00000+0 -30558-2 0  9996
2 48054  87.8981 315.8194 0001872 104.2676 255.8661 13.13463100256535
ONEWEB-0157             
1 48055U 21025P   26191.31169542 -.00000055  00000+0 -18457-3 0  9991
2 48055  87.8973 315.6220 0002337  99.8130 260.3263 13.13471816256606
ONEWEB-0162             
1 48056U 21025Q   26191.28786271 -.00000210  00000+0 -60977-3 0  9999
2 48056  87.8978 315.6266 0001902  94.6222 265.5124 13.13469043256572
ONEWEB-0155             
1 48057U 21025R   26191.75185147 -.00000276  00000+0 -78982-3 0  9994
2 48057  87.8976 315.5317 0002023  95.9647 264.1712 13.13473459256773
ONEWEB-0149             
1 48058U 21025S   26191.31677878  .00000049  00000+0  99813-4 0  9997
2 48058  87.8986 315.6210 0001859  91.2154 268.9188 13.13470301256521
ONEWEB-0148             
1 48059U 21025T   26191.35570962  .00000010  00000+0 -81833-5 0  9991
2 48059  87.8976 315.6187 0002080  82.0668 278.0698 13.13468876256655
ONEWEB-0160             
1 48060U 21025U   26191.75351757 -.00000293  00000+0 -83852-3 0  9991
2 48060  87.8969 315.5365 0001220 111.1007 249.0252 13.13469515256657
ONEWEB-0163             
1 48061U 21025V   26192.11917875  .00000066  00000+0  14663-3 0  9992
2 48061  87.8977 315.4609 0002152  99.2317 260.9055 13.13468362256823
